[{"model": "part_ad.Address", "fields": {"street_name": "Peterson Roads", "street_number": "341", "city": "Lake Meghanborough", "state_province": "Oklahoma", "postal_code": "97996", "latitude": "34.253616", "longitude": "-106.526207"}}, {"model": "part_ad.Address", "fields": {"street_name": "Villanueva Islands", "street_number": "73455", "city": "Lake James", "state_province": "South Carolina", "postal_code": "83534", "latitude": "43.345796", "longitude": "-84.371650"}}, {"model": "part_ad.Address", "fields": {"street_name": "Isaac Stream", "street_number": "8413", "city": "Lake Johnton", "state_province": "Texas", "postal_code": "82587", "latitude": "1.5665755", "longitude": "-37.220844"}}, {"model": "part_ad.Address", "fields": {"street_name": "Watson Mills", "street_number": "128", "city": "Lake Markhaven", "state_province": "Hawaii", "postal_code": "98799", "latitude": "51.474998", "longitude": "65.853821"}}, {"model": "part_ad.Address", "fields": {"street_name": "Walker Alley", "street_number": "39998", "city": "Robertsstad", "state_province": "Missouri", "postal_code": "48306", "latitude": "58.734036", "longitude": "-75.487948"}}, {"model": "part_ad.Address", "fields": {"street_name": "Jeffery Mission", "street_number": "8050", "city": "Lake Ashley", "state_province": "Texas", "postal_code": "29491", "latitude": "35.8843285", "longitude": "-68.020641"}}, {"model": "part_ad.Address", "fields": {"street_name": "Lisa Plain", "street_number": "94484", "city": "North Erin", "state_province": "Arizona", "postal_code": "98452", "latitude": "64.704408", "longitude": "98.966184"}}, {"model": "part_ad.Address", "fields": {"street_name": "Joshua Wall", "street_number": "58594", "city": "Davidmouth", "state_province": "Arkansas", "postal_code": "73700", "latitude": "-57.8099495", "longitude": "-66.628453"}}, {"model": "part_ad.Address", "fields": {"street_name": "Savage Tunnel", "street_number": "453", "city": "West Garrett", "state_province": "Connecticut", "postal_code": "19558", "latitude": "-41.7758965", "longitude": "120.135861"}}, {"model": "part_ad.Address", "fields": {"street_name": "Pacheco Hills", "street_number": "2215", "city": "Jonestown", "state_province": "Oklahoma", "postal_code": "31913", "latitude": "-65.741662", "longitude": "-33.544393"}}]